{
  "norad_id": 48245,
  "name": "ONEWEB-0217",
  "history": [
    {
      "epoch": "2026-03-28T20:02:30.357312",
      "apogee_km": 1207.2343777371598,
      "perigee_km": 1204.3391390031647,
      "latitude_deg": 38.06107559359449,
      "longitude_deg": 164.66706368001178,
      "semi_major_axis_km": 7583.923758370162,
      "eccentricity": 0.00019088,
      "inclination_deg": 87.8953,
      "raan_deg": 305.7318,
      "arg_perigee_deg": 77.0376,
      "mean_anomaly_deg": 283.0967,
      "mean_motion_rev_day": 13.14503735
    },
    {
      "epoch": "2026-03-29T03:20:56.613696",
      "apogee_km": 1207.2312517614246,
      "perigee_km": 1204.3357109216486,
      "latitude_deg": 81.07346682367462,
      "longitude_deg": -166.10376255982555,
      "semi_major_axis_km": 7583.920481341536,
      "eccentricity": 0.0001909,
      "inclination_deg": 87.8952,
      "raan_deg": 305.671,
      "arg_perigee_deg": 76.944,
      "mean_anomaly_deg": 283.1902,
      "mean_motion_rev_day": 13.14504587
    }
  ]
}